*******************************************************************************
JPL/HORIZONS                     (2018 XU3)                2020-Dec-13 19:56:09
Rec #:50456301 (+COV) Soln.date: 2020-Dec-12_05:24:24     # obs: 29 (2018-2020)
 
IAU76/J2000 helio. ecliptic osc. elements (au, days, deg., period=Julian yrs):
 
  EPOCH=  2458739.5 ! 2019-Sep-13.00 (TDB)         Residual RMS= .24205
   EC= .4010918027352011   QR= .9495427354958318   TP= 2458500.8569760085
   OM= 75.47899834954796   W=  44.78158477416852   IN= 13.25138160466334
   A= 1.585456234916091    MA= 117.8206542903838   ADIST= 2.221369734336351
   PER= 1.99636            N= .493710853           ANGMOM= .019841386
   DAN= 1.03557            DDN= 1.8599             L= 119.4876535
   B= 9.2920386            MOID= .0384019          TP= 2019-Jan-17.3569760085
 
Asteroid physical parameters (km, seconds, rotational period in hours):
   GM= n.a.                RAD= n.a.               ROTPER= n.a.
   H= 25.4                 G= .150                 B-V= n.a.
                           ALBEDO= n.a.            STYP= n.a.
 
ASTEROID comments: 
1: soln ref.= JPL#5, OCC=0
2: source=ORB
*******************************************************************************
 
 
*******************************************************************************
Ephemeris / WWW_USER Sun Dec 13 19:56:09 2020 Pasadena, USA      / Horizons    
*******************************************************************************
Target body name: (2018 XU3)                      {source: JPL#5}
Center body name: Solar System Barycenter (0)     {source: DE431}
Center-site name: BODYCENTRIC
*******************************************************************************
Start time      : A.D. 2014-Jan-01 00:00:00.0000 UT      
Stop  time      : A.D. 2023-Jan-01 00:00:00.0000 UT      
Step-size       : 1440 minutes
*******************************************************************************
Target pole/equ : No model available
Target radii    : (unavailable)                                                
Center geodetic : 0.00000000,0.00000000,0.0000000 {E-lon(deg),Lat(deg),Alt(km)}
Center cylindric: 0.00000000,0.00000000,0.0000000 {E-lon(deg),Dxy(km),Dz(km)}
Center pole/equ : ICRF
Center radii    : (undefined)                                                  
Target primary  : Sun
Vis. interferer : None
Rel. light bend : Sun                             {source: DE431}
Rel. lght bnd GM: 1.3271E+11 km^3/s^2                                          
Small-body perts: Yes                             {source: SB431-N16}
Atmos refraction: NO (AIRLESS)
RA format       : DEG
Time format     : CAL 
EOP file        : eop.201211.p210304                                           
EOP coverage    : DATA-BASED 1962-JAN-20 TO 2020-DEC-11. PREDICTS-> 2021-MAR-03
Units conversion: 1 au= 149597870.700 km, c= 299792.458 km/s, 1 day= 86400.0 s 
Table cut-offs 1: Elevation (-90.0deg=NO ),Airmass     n.a.    , Daylight (NO )
Table cut-offs 2: Solar elongation (  0.0,180.0=NO ),Local Hour Angle( 0.0=NO )
Table cut-offs 3: RA/DEC angular rate (     0.0=NO )                           
*******************************************************************************
Initial IAU76/J2000 heliocentric ecliptic osculating elements (au, days, deg.):
  EPOCH=  2458739.5 ! 2019-Sep-13.00 (TDB)         Residual RMS= .24205        
   EC= .4010918027352011   QR= .9495427354958318   TP= 2458500.8569760085      
   OM= 75.47899834954796   W=  44.78158477416852   IN= 13.25138160466334       
  Equivalent ICRF heliocentric equatorial cartesian coordinates (au, au/d):
   X=-3.258132277397596E-02  Y=-1.814207931486627E+00  Z=-9.088489517295417E-01
  VX= 9.482773435699277E-03 VY=-1.905107512137125E-03 VZ=-3.381248562819023E-03
Asteroid physical parameters (km, seconds, rotational period in hours):        
   GM= n.a.                RAD= n.a.               ROTPER= n.a.                
   H= 25.4                 G= .150                 B-V= n.a.                   
                           ALBEDO= n.a.            STYP= n.a.                  
*******************************************************************************
 Date__(UT)__HR:MN                delta     GlxLon     GlxLat
*************************************************************
$$SOE
 2020-Feb-04 00:00     3.3050862076E+08  14.764078 -34.035348
 2020-Feb-05 00:00     3.3044223708E+08  14.862556 -34.252396
 2020-Feb-06 00:00     3.3037226362E+08  14.961583 -34.469454
 2020-Feb-07 00:00     3.3029869998E+08  15.061170 -34.686527
 2020-Feb-08 00:00     3.3022154577E+08  15.161324 -34.903618
 2020-Feb-09 00:00     3.3014080058E+08  15.262058 -35.120731
 2020-Feb-10 00:00     3.3005646399E+08  15.363379 -35.337869
 2020-Feb-11 00:00     3.2996853553E+08  15.465299 -35.555036
 2020-Feb-12 00:00     3.2987701475E+08  15.567827 -35.772236
 2020-Feb-13 00:00     3.2978190117E+08  15.670975 -35.989472
 2020-Feb-14 00:00     3.2968319427E+08  15.774753 -36.206747
 2020-Feb-15 00:00     3.2958089356E+08  15.879171 -36.424065
 2020-Feb-16 00:00     3.2947499848E+08  15.984241 -36.641429
 2020-Feb-17 00:00     3.2936550850E+08  16.089974 -36.858844
 2020-Feb-18 00:00     3.2925242304E+08  16.196381 -37.076312
 2020-Feb-19 00:00     3.2913574153E+08  16.303475 -37.293837
 2020-Feb-20 00:00     3.2901546335E+08  16.411267 -37.511422
 2020-Feb-21 00:00     3.2889158789E+08  16.519768 -37.729071
 2020-Feb-22 00:00     3.2876411452E+08  16.628993 -37.946787
 2020-Feb-23 00:00     3.2863304259E+08  16.738952 -38.164573
 2020-Feb-24 00:00     3.2849837144E+08  16.849659 -38.382433
 2020-Feb-25 00:00     3.2836010038E+08  16.961127 -38.600370
 2020-Feb-26 00:00     3.2821822871E+08  17.073369 -38.818388
 2020-Feb-27 00:00     3.2807275573E+08  17.186398 -39.036489
 2020-Feb-28 00:00     3.2792368071E+08  17.300229 -39.254677
 2020-Feb-29 00:00     3.2777100291E+08  17.414876 -39.472955
 2020-Mar-01 00:00     3.2761472156E+08  17.530353 -39.691327
 2020-Mar-02 00:00     3.2745483590E+08  17.646674 -39.909795
 2020-Mar-03 00:00     3.2729134513E+08  17.763854 -40.128363
 2020-Mar-04 00:00     3.2712424847E+08  17.881909 -40.347034
 2020-Mar-05 00:00     3.2695354510E+08  18.000855 -40.565811
 2020-Mar-06 00:00     3.2677923418E+08  18.120706 -40.784697
 2020-Mar-07 00:00     3.2660131488E+08  18.241480 -41.003695
 2020-Mar-08 00:00     3.2641978635E+08  18.363193 -41.222808
 2020-Mar-09 00:00     3.2623464770E+08  18.485861 -41.442040
 2020-Mar-10 00:00     3.2604589807E+08  18.609502 -41.661393
 2020-Mar-11 00:00     3.2585353656E+08  18.734133 -41.880869
 2020-Mar-12 00:00     3.2565756226E+08  18.859773 -42.100473
 2020-Mar-13 00:00     3.2545797425E+08  18.986439 -42.320207
 2020-Mar-14 00:00     3.2525477161E+08  19.114151 -42.540073
 2020-Mar-15 00:00     3.2504795340E+08  19.242927 -42.760075
 2020-Mar-16 00:00     3.2483751866E+08  19.372788 -42.980215
 2020-Mar-17 00:00     3.2462346642E+08  19.503752 -43.200496
 2020-Mar-18 00:00     3.2440579572E+08  19.635841 -43.420921
 2020-Mar-19 00:00     3.2418450558E+08  19.769074 -43.641493
 2020-Mar-20 00:00     3.2395959499E+08  19.903475 -43.862213
 2020-Mar-21 00:00     3.2373106295E+08  20.039063 -44.083085
 2020-Mar-22 00:00     3.2349890846E+08  20.175863 -44.304111
 2020-Mar-23 00:00     3.2326313048E+08  20.313895 -44.525294
 2020-Mar-24 00:00     3.2302372800E+08  20.453184 -44.746635
 2020-Mar-25 00:00     3.2278069996E+08  20.593754 -44.968138
 2020-Mar-26 00:00     3.2253404533E+08  20.735628 -45.189805
 2020-Mar-27 00:00     3.2228376305E+08  20.878833 -45.411637
 2020-Mar-28 00:00     3.2202985206E+08  21.023392 -45.633638
 2020-Mar-29 00:00     3.2177231129E+08  21.169333 -45.855809
 2020-Mar-30 00:00     3.2151113968E+08  21.316682 -46.078153
 2020-Mar-31 00:00     3.2124633613E+08  21.465467 -46.300670
 2020-Apr-01 00:00     3.2097789958E+08  21.615715 -46.523364
 2020-Apr-02 00:00     3.2070582892E+08  21.767456 -46.746237
 2020-Apr-03 00:00     3.2043012306E+08  21.920718 -46.969289
 2020-Apr-04 00:00     3.2015078092E+08  22.075531 -47.192523
 2020-Apr-05 00:00     3.1986780138E+08  22.231928 -47.415941
 2020-Apr-06 00:00     3.1958118335E+08  22.389938 -47.639543
 2020-Apr-07 00:00     3.1929092572E+08  22.549595 -47.863332
 2020-Apr-08 00:00     3.1899702738E+08  22.710931 -48.087309
 2020-Apr-09 00:00     3.1869948722E+08  22.873981 -48.311475
 2020-Apr-10 00:00     3.1839830414E+08  23.038780 -48.535831
 2020-Apr-11 00:00     3.1809347703E+08  23.205363 -48.760379
 2020-Apr-12 00:00     3.1778500477E+08  23.373767 -48.985119
 2020-Apr-13 00:00     3.1747288627E+08  23.544029 -49.210053
 2020-Apr-14 00:00     3.1715712040E+08  23.716188 -49.435180
 2020-Apr-15 00:00     3.1683770608E+08  23.890284 -49.660503
 2020-Apr-16 00:00     3.1651464220E+08  24.066356 -49.886020
 2020-Apr-17 00:00     3.1618792767E+08  24.244448 -50.111734
 2020-Apr-18 00:00     3.1585756139E+08  24.424601 -50.337643
 2020-Apr-19 00:00     3.1552354228E+08  24.606859 -50.563749
 2020-Apr-20 00:00     3.1518586925E+08  24.791267 -50.790050
 2020-Apr-21 00:00     3.1484454124E+08  24.977872 -51.016547
 2020-Apr-22 00:00     3.1449955717E+08  25.166721 -51.243240
 2020-Apr-23 00:00     3.1415091599E+08  25.357862 -51.470128
 2020-Apr-24 00:00     3.1379861664E+08  25.551346 -51.697210
 2020-Apr-25 00:00     3.1344265809E+08  25.747224 -51.924486
 2020-Apr-26 00:00     3.1308303931E+08  25.945549 -52.151954
 2020-Apr-27 00:00     3.1271975929E+08  26.146375 -52.379614
 2020-Apr-28 00:00     3.1235281700E+08  26.349758 -52.607463
 2020-Apr-29 00:00     3.1198221148E+08  26.555755 -52.835500
 2020-Apr-30 00:00     3.1160794173E+08  26.764426 -53.063723
 2020-May-01 00:00     3.1123000679E+08  26.975830 -53.292130
 2020-May-02 00:00     3.1084840572E+08  27.190030 -53.520719
